NORAD_CAT_ID,OBJECT_NAME,OBJECT_TYPE,EPOCH,MEAN_MOTION,ECCENTRICITY,INCLINATION,RA_OF_ASC_NODE,ARG_OF_PERICENTER,MEAN_ANOMALY,BSTAR,MEAN_MOTION_DOT,MEAN_MOTION_DDOT,TLE_LINE0,TLE_LINE1,TLE_LINE2,SEMIMAJOR_AXIS,PERIOD,APOGEE,PERIGEE,DECAYED
53248.0,STARLINK-4135,PAYLOAD,2024-05-21 12:57:01,15.08835024,0.0001417,53.2159,269.2887,133.1018,227.0093,0.0011054,0.00017346,0.0,0 STARLINK-4135,1 53248U 22086G   24142.53959852  .00017346  00000-0  11054-2 0  9993,2 53248  53.2159 269.2887 0001417 133.1018 227.0093 15.08835024101608,6917.896,95.438,540.741,538.78,0.0
53248.0,STARLINK-4135,PAYLOAD,2024-05-21 14:32:24,15.08835236,0.0001518,53.2168,268.9876,78.0885,282.0278,0.000897,0.00014015,0.0,0 STARLINK-4135,1 53248U 22086G   24142.60584135  .00014015  00000-0  89700-3 0  9993,2 53248  53.2168 268.9876 0001518  78.0885 282.0278 15.08835236102111,6917.895,95.438,540.81,538.71,0.0
53248.0,STARLINK-4135,PAYLOAD,2024-05-21 16:07:47,15.08845631,0.0001413,53.2167,268.6914,85.8587,274.2567,0.0010759,0.00016879,0.0,0 STARLINK-4135,1 53248U 22086G   24142.67207975  .00016879  00000-0  10759-2 0  9991,2 53248  53.2167 268.6914 0001413  85.8587 274.2567 15.08845631102124,6917.863,95.437,540.706,538.751,0.0
53248.0,STARLINK-4135,PAYLOAD,2024-05-23 12:38:35,15.08833999,0.0001479,53.2164,260.3704,96.7247,263.3913,0.00056306,8.683e-05,0.0,0 STARLINK-4135,1 53248U 22086G   24144.52680029  .00008683  00000-0  56306-3 0  9995,2 53248  53.2164 260.3704 0001479  96.7247 263.3913 15.08833999101906,6917.899,95.438,540.787,538.741,0.0
53248.0,STARLINK-4135,PAYLOAD,2024-05-23 14:13:58,15.08836904,0.0001322,53.2163,260.0733,86.3801,273.7343,0.00037053,5.613e-05,0.0,0 STARLINK-4135,1 53248U 22086G   24144.59304013  .00005613  00000-0  37053-3 0  9996,2 53248  53.2163 260.0733 0001322  86.3801 273.7343 15.08836904102410,6917.89,95.438,540.669,538.84,0.0
53248.0,STARLINK-4135,PAYLOAD,2024-05-24 12:29:22,15.08847724,0.0001366,53.2157,255.9021,82.6722,277.4425,0.00057919,8.944e-05,0.0,0 STARLINK-4135,1 53248U 22086G   24145.52039971  .00008944  00000-0  57919-3 0  9991,2 53248  53.2157 255.9021 0001366  82.6722 277.4425 15.08847724102554,6917.857,95.437,540.667,538.777,0.0
53248.0,STARLINK-4135,PAYLOAD,2024-05-24 17:15:31,15.08851618,0.0001403,53.2161,255.0105,88.4783,271.637,0.00058051,8.966e-05,0.0,0 STARLINK-4135,1 53248U 22086G   24145.71911791  .00008966  00000-0  58051-3 0  9993,2 53248  53.2161 255.0105 0001403  88.4783 271.6370 15.08851618102086,6917.845,95.437,540.68,538.739,0.0
53248.0,STARLINK-4135,PAYLOAD,2024-05-25 13:55:37,15.08642412,0.0001798,53.2172,251.1605,318.0295,42.0559,-0.0054335,-0.00085279,0.0,0 STARLINK-4135,1 53248U 22086G   24146.58029450 -.00085279  00000-0 -54335-2 0  9995,2 53248  53.2172 251.1605 0001798 318.0295  42.0559 15.08642412102211,6918.484,95.45,541.593,539.105,0.0
53248.0,STARLINK-4135,PAYLOAD,2024-05-25 17:06:19,15.08836919,0.0001293,53.2162,250.556,97.4451,262.6688,6.6426e-05,7.69e-06,0.0,0 STARLINK-4135,1 53248U 22086G   24146.71272320  .00000769  00000-0  66426-4 0  9991,2 53248  53.2162 250.5560 0001293  97.4451 262.6688 15.08836919102237,6917.89,95.438,540.649,538.86,0.0
53248.0,STARLINK-4135,PAYLOAD,2024-05-26 13:46:20,15.08843068,0.0001304,53.2165,246.6946,102.2307,257.8831,0.00047338,7.255e-05,0.0,0 STARLINK-4135,1 53248U 22086G   24147.57384547  .00007255  00000-0  47338-3 0  9998,2 53248  53.2165 246.6946 0001304 102.2307 257.8831 15.08843068102860,6917.871,95.437,540.638,538.834,0.0
53248.0,STARLINK-4135,PAYLOAD,2024-05-26 23:18:38,15.0883813,0.0001508,53.2162,244.9144,195.7502,164.3443,-8.9499e-05,-1.712e-05,0.0,0 STARLINK-4135,1 53248U 22086G   24147.97127515 -.00001712  00000-0 -89499-4 0  9991,2 53248  53.2162 244.9144 0001508 195.7502 164.3443 15.08838130102425,6917.886,95.438,540.794,538.708,0.0
53248.0,STARLINK-4135,PAYLOAD,2024-05-27 13:37:07,15.08845703,0.0001348,53.2165,242.2298,88.9933,271.1214,0.00031334,4.703e-05,0.0,0 STARLINK-4135,1 53248U 22086G   24148.56744477  .00004703  00000-0  31334-3 0  9994,2 53248  53.2165 242.2298 0001348  88.9933 271.1214 15.08845703103015,6917.863,95.437,540.66,538.795,0.0
53248.0,STARLINK-4135,PAYLOAD,2024-05-27 15:12:30,15.08846601,0.000134,53.2164,241.9323,87.4789,272.6357,0.00027621,4.111e-05,0.0,0 STARLINK-4135,1 53248U 22086G   24148.63368410  .00004111  00000-0  27621-3 0  9998,2 53248  53.2164 241.9323 0001340  87.4789 272.6357 15.08846601103027,6917.86,95.437,540.652,538.798,0.0
53248.0,STARLINK-4135,PAYLOAD,2024-05-28 05:30:58,15.08846739,0.0001368,53.2158,239.257,84.419,275.6958,0.00015434,2.17e-05,0.0,0 STARLINK-4135,1 53248U 22086G   24149.22984236  .00002170  00000-0  15434-3 0  9996,2 53248  53.2158 239.2570 0001368  84.4190 275.6958 15.08846739102613,6917.86,95.437,540.671,538.778,0.0
53248.0,STARLINK-4135,PAYLOAD,2024-05-28 13:27:54,15.08843413,0.0001281,53.2158,237.7675,82.9084,277.2054,5.3196e-05,5.59e-06,0.0,0 STARLINK-4135,1 53248U 22086G   24149.56104359  .00000559  00000-0  53196-4 0  9990,2 53248  53.2158 237.7675 0001281  82.9084 277.2054 15.08843413103163,6917.87,95.437,540.621,538.849,0.0
53248.0,STARLINK-4135,PAYLOAD,2024-05-29 05:21:45,15.08844155,0.0001306,53.2149,234.794,76.7562,283.3576,0.0001043,1.373e-05,0.0,0 STARLINK-4135,1 53248U 22086G   24150.22344219  .00001373  00000-0  10430-3 0  9994,2 53248  53.2149 234.7940 0001306  76.7562 283.3576 15.08844155102761,6917.868,95.437,540.636,538.829,0.0
53248.0,STARLINK-4135,PAYLOAD,2024-05-29 13:18:41,15.08842946,0.0001329,53.2159,233.307,78.0945,282.0196,7.7525e-05,9.46e-06,0.0,0 STARLINK-4135,1 53248U 22086G   24150.55464312  .00000946  00000-0  77525-4 0  9991,2 53248  53.2159 233.3070 0001329  78.0945 282.0196 15.08842946103318,6917.871,95.437,540.656,538.817,0.0
53248.0,STARLINK-4135,PAYLOAD,2024-05-30 11:34:04,15.08847089,0.0001317,53.2168,229.1438,80.5183,279.5958,0.00012326,1.675e-05,0.0,0 STARLINK-4135,1 53248U 22086G   24151.48200136  .00001675  00000-0  12326-3 0  9993,2 53248  53.2168 229.1438 0001317  80.5183 279.5958 15.08847089102957,6917.859,95.437,540.635,538.813,0.0
53248.0,STARLINK-4135,PAYLOAD,2024-05-30 14:44:50,15.08850252,0.000131,53.2168,228.5481,82.9069,277.2072,0.00015057,2.11e-05,0.0,0 STARLINK-4135,1 53248U 22086G   24151.61447816  .00002110  00000-0  15057-3 0  9995,2 53248  53.2168 228.5481 0001310  82.9069 277.2072 15.08850252103476,6917.849,95.437,540.62,538.808,0.0
53248.0,STARLINK-4135,PAYLOAD,2024-05-31 11:24:51,15.0884462,0.0001248,53.2163,224.6813,98.264,261.8493,9.1442e-05,1.168e-05,0.0,0 STARLINK-4135,1 53248U 22086G   24152.47559926  .00001168  00000-0  91442-4 0  9991,2 53248  53.2163 224.6813 0001248  98.2640 261.8493 15.08844620103605,6917.866,95.437,540.595,538.868,0.0
53248.0,STARLINK-4135,PAYLOAD,2024-06-01 11:15:39,15.08839866,0.0001197,53.2163,220.2249,87.8984,272.2145,-2.5938e-05,-7.01e-06,0.0,0 STARLINK-4135,1 53248U 22086G   24153.46920420 -.00000701  00000-0 -25938-4 0  9993,2 53248  53.2163 220.2249 0001197  87.8984 272.2145 15.08839866103255,6917.881,95.438,540.574,538.918,0.0
53248.0,STARLINK-4135,PAYLOAD,2024-06-02 11:06:26,15.08829973,0.0001248,53.2163,215.7627,95.2227,264.8908,1.6183e-05,-3e-07,0.0,0 STARLINK-4135,1 53248U 22086G   24154.46281083 -.00000030  00000-0  16183-4 0  9995,2 53248  53.2163 215.7627 0001248  95.2227 264.8908 15.08829973103403,6917.911,95.438,540.639,538.913,0.0
53248.0,STARLINK-4135,PAYLOAD,2024-06-02 14:17:13,15.08832076,0.0001209,53.2164,215.1679,90.6554,269.4577,1.5105e-05,-4.7e-07,0.0,0 STARLINK-4135,1 53248U 22086G   24154.59529044 -.00000047  00000-0  15105-4 0  9992,2 53248  53.2164 215.1679 0001209  90.6554 269.4577 15.08832076103922,6917.905,95.438,540.606,538.933,0.0
53248.0,STARLINK-4135,PAYLOAD,2024-06-02 20:38:45,15.08842678,0.0001284,53.217,213.9787,90.6639,269.4501,-1.672e-05,-5.54e-06,0.0,0 STARLINK-4135,1 53248U 22086G   24154.86024477 -.00000554  00000-0 -16720-4 0  9990,2 53248  53.2170 213.9787 0001284  90.6639 269.4501 15.08842678103467,6917.872,95.437,540.625,538.849,0.0
53248.0,STARLINK-4135,PAYLOAD,2024-06-03 04:35:41,15.08832953,0.0001403,53.2176,212.4922,89.9301,270.1852,6.3513e-05,7.23e-06,0.0,0 STARLINK-4135,1 53248U 22086G   24155.19145098  .00000723  00000-0  63513-4 0  9998,2 53248  53.2176 212.4922 0001403  89.9301 270.1852 15.08832953103517,6917.902,95.438,540.738,538.796,0.0
53248.0,STARLINK-4135,PAYLOAD,2024-06-03 10:57:13,15.0883743,0.0001413,53.2176,211.3031,90.4826,269.6328,9.8064e-05,1.273e-05,0.0,0 STARLINK-4135,1 53248U 22086G   24155.45640827  .00001273  00000-0  98064-4 0  9997,2 53248  53.2176 211.3031 0001413  90.4826 269.6328 15.08837430104052,6917.888,95.438,540.731,538.776,0.0
53248.0,STARLINK-4135,PAYLOAD,2024-06-03 20:29:31,15.08845632,0.0001459,53.218,209.519,90.5176,269.5983,0.0001305,1.79e-05,0.0,0 STARLINK-4135,1 53248U 22086G   24155.85384253  .00001790  00000-0  13050-3 0  9994,2 53248  53.2180 209.5190 0001459  90.5176 269.5983 15.08845632104117,6917.863,95.437,540.737,538.719,0.0
53248.0,STARLINK-4135,PAYLOAD,2024-06-04 02:51:04,15.08838304,0.0001535,53.2181,208.3302,94.5839,265.5328,0.000128,1.75e-05,0.0,0 STARLINK-4135,1 53248U 22086G   24156.11880725  .00001750  00000-0  12800-3 0  9997,2 53248  53.2181 208.3302 0001535  94.5839 265.5328 15.08838304103650,6917.886,95.438,540.812,538.689,0.0
53248.0,STARLINK-4135,PAYLOAD,2024-06-04 12:23:23,15.0883795,0.0001626,53.2173,206.5446,94.3195,265.7983,0.00011033,1.468e-05,0.0,0 STARLINK-4135,1 53248U 22086G   24156.51624913  .00001468  00000-0  11033-3 0  9999,2 53248  53.2173 206.5446 0001626  94.3195 265.7983 15.08837950104212,6917.887,95.438,540.877,538.627,0.0
53248.0,STARLINK-4135,PAYLOAD,2024-06-04 20:20:19,15.08845404,0.0001598,53.2173,205.0585,89.4979,270.6196,0.00012112,1.64e-05,0.0,0 STARLINK-4135,1 53248U 22086G   24156.84744385  .00001640  00000-0  12112-3 0  9992,2 53248  53.2173 205.0585 0001598  89.4979 270.6196 15.08845404104262,6917.864,95.437,540.834,538.623,0.0
